{
  "norad_id": 54760,
  "name": "STARLINK-5220",
  "history": [
    {
      "epoch": "2026-03-28T21:09:25.889760Z",
      "apogee_km": 540.7737139618312,
      "perigee_km": 538.7011187866865,
      "latitude_deg": -5.52443787475738e-05,
      "longitude_deg": 174.5020540212851,
      "height_km": 540.5985285022109,
      "semi_major_axis_km": 6917.8744163742585,
      "eccentricity": 0.0001498,
      "inclination_deg": 53.2173,
      "raan_deg": 318.1556,
      "arg_perigee_deg": 88.0976,
      "mean_anomaly_deg": 272.0187,
      "mean_motion_rev_day": 15.08841954
    },
    {
      "epoch": "2026-03-28T21:09:25.890624Z",
      "apogee_km": 540.7734372468549,
      "perigee_km": 538.7013955016628,
      "latitude_deg": -5.1553041639033393e-05,
      "longitude_deg": 174.50205315602437,
      "height_km": 540.5985376878276,
      "semi_major_axis_km": 6917.8744163742585,
      "eccentricity": 0.00014976,
      "inclination_deg": 53.2173,
      "raan_deg": 318.1556,
      "arg_perigee_deg": 88.0976,
      "mean_anomaly_deg": 272.0187,
      "mean_motion_rev_day": 15.08841954
    },
    {
      "epoch": "2026-03-30T00:10:59.441952Z",
      "apogee_km": 540.8276275209555,
      "perigee_km": 538.6556903371975,
      "latitude_deg": 1.5039933402274173e-05,
      "longitude_deg": 122.94698811475745,
      "height_km": 540.5133833412241,
      "semi_major_axis_km": 6917.878658929076,
      "eccentricity": 0.00015698,
      "inclination_deg": 53.2173,
      "raan_deg": 313.1002,
      "arg_perigee_deg": 83.4598,
      "mean_anomaly_deg": 276.6573,
      "mean_motion_rev_day": 15.08840566
    },
    {
      "epoch": "2026-03-30T08:07:55.150464Z",
      "apogee_km": 540.8762480401138,
      "perigee_km": 538.6107805292959,
      "latitude_deg": 2.1372920187449026e-05,
      "longitude_deg": 1.9017284644357617,
      "height_km": 540.521897559139,
      "semi_major_axis_km": 6917.880514284704,
      "eccentricity": 0.00016374,
      "inclination_deg": 53.2178,
      "raan_deg": 311.6135,
      "arg_perigee_deg": 84.072,
      "mean_anomaly_deg": 276.0459,
      "mean_motion_rev_day": 15.08839959
    },
    {
      "epoch": "2026-03-30T20:50:59.890272Z",
      "apogee_km": 540.8542738001497,
      "perigee_km": 538.6048603072059,
      "latitude_deg": 2.878195399521178e-05,
      "longitude_deg": 168.23047637216237,
      "height_km": 540.5231167289396,
      "semi_major_axis_km": 6917.8665670536775,
      "eccentricity": 0.00016258,
      "inclination_deg": 53.2172,
      "raan_deg": 309.2343,
      "arg_perigee_deg": 84.8084,
      "mean_anomaly_deg": 275.3094,
      "mean_motion_rev_day": 15.08844522
    },
    {
      "epoch": "2026-03-31T00:01:46.215840Z",
      "apogee_km": 540.8007507474276,
      "perigee_km": 538.664374269134,
      "latitude_deg": 1.2256646867313077e-05,
      "longitude_deg": 119.81256218092015,
      "height_km": 540.5042297279499,
      "semi_major_axis_km": 6917.869562508281,
      "eccentricity": 0.00015441,
      "inclination_deg": 53.2173,
      "raan_deg": 308.64,
      "arg_perigee_deg": 83.3453,
      "mean_anomaly_deg": 276.7715,
      "mean_motion_rev_day": 15.08843542
    },
    {
      "epoch": "2026-04-01T20:32:34.365984Z",
      "apogee_km": 540.7904672890627,
      "perigee_km": 538.7026500310594,
      "latitude_deg": -4.035135608834009e-06,
      "longitude_deg": 161.95552757097883,
      "height_km": 540.6473970204931,
      "semi_major_axis_km": 6917.883558660061,
      "eccentricity": 0.0001509,
      "inclination_deg": 53.2175,
      "raan_deg": 300.3117,
      "arg_perigee_deg": 90.2925,
      "mean_anomaly_deg": 269.824,
      "mean_motion_rev_day": 15.08838963
    },
    {
      "epoch": "2026-04-02T20:23:21.450912Z",
      "apogee_km": 540.7996230687986,
      "perigee_km": 538.6882858015042,
      "latitude_deg": 3.168822278385716e-05,
      "longitude_deg": 158.8209303420261,
      "height_km": 540.5711252757915,
      "semi_major_axis_km": 6917.880954435151,
      "eccentricity": 0.0001526,
      "inclination_deg": 53.2168,
      "raan_deg": 295.8526,
      "arg_perigee_deg": 86.2937,
      "mean_anomaly_deg": 273.823,
      "mean_motion_rev_day": 15.08839815
    },
    {
      "epoch": "2026-04-02T20:23:21.451776Z",
      "apogee_km": 540.7994847111786,
      "perigee_km": 538.6884241591233,
      "latitude_deg": 3.3530954285262796e-05,
      "longitude_deg": 158.82092810231026,
      "height_km": 540.5711342194508,
      "semi_major_axis_km": 6917.880954435151,
      "eccentricity": 0.00015258,
      "inclination_deg": 53.2168,
      "raan_deg": 295.8526,
      "arg_perigee_deg": 86.2937,
      "mean_anomaly_deg": 273.823,
      "mean_motion_rev_day": 15.08839815
    },
    {
      "epoch": "2026-04-03T18:38:45.607200Z",
      "apogee_km": 540.7538836270642,
      "perigee_km": 538.7463127911651,
      "latitude_deg": -3.1742403092307914e-05,
      "longitude_deg": 179.89208142297133,
      "height_km": 540.6335615289909,
      "semi_major_axis_km": 6917.887098209115,
      "eccentricity": 0.0001451,
      "inclination_deg": 53.2179,
      "raan_deg": 291.6885,
      "arg_perigee_deg": 89.3051,
      "mean_anomaly_deg": 270.8107,
      "mean_motion_rev_day": 15.08837805
    },
    {
      "epoch": "2026-04-05T11:58:47.481888Z",
      "apogee_km": 540.7447243180923,
      "perigee_km": 538.7613652422533,
      "latitude_deg": 2.9892684397996134e-06,
      "longitude_deg": -89.543426883227,
      "height_km": 540.7217968927805,
      "semi_major_axis_km": 6917.8900447801725,
      "eccentricity": 0.00014335,
      "inclination_deg": 53.217,
      "raan_deg": 283.9583,
      "arg_perigee_deg": 94.2324,
      "mean_anomaly_deg": 265.8832,
      "mean_motion_rev_day": 15.08836841
    },
    {
      "epoch": "2026-04-05T18:20:19.953312Z",
      "apogee_km": 540.7191867080373,
      "perigee_km": 538.7740161969805,
      "latitude_deg": -6.330019043972396e-05,
      "longitude_deg": 173.62077008879527,
      "height_km": 540.7736914034541,
      "semi_major_axis_km": 6917.883601452509,
      "eccentricity": 0.00014059,
      "inclination_deg": 53.217,
      "raan_deg": 282.769,
      "arg_perigee_deg": 97.7685,
      "mean_anomaly_deg": 262.3466,
      "mean_motion_rev_day": 15.08838949
    },
    {
      "epoch": "2026-04-07T11:40:21.573120Z",
      "apogee_km": 540.674300034093,
      "perigee_km": 538.8030146687788,
      "latitude_deg": 3.6889460411615495e-05,
      "longitude_deg": -95.81482710795741,
      "height_km": 540.5552200104166,
      "semi_major_axis_km": 6917.875657351436,
      "eccentricity": 0.00013525,
      "inclination_deg": 53.2175,
      "raan_deg": 275.0376,
      "arg_perigee_deg": 85.1462,
      "mean_anomaly_deg": 274.9685,
      "mean_motion_rev_day": 15.08841548
    }
  ]
}